[{"OBJECT_NAME":"STARLINK-33986","OBJECT_ID":"2025-094G","EPOCH":"2026-03-09T21:19:41.475072","MEAN_MOTION":14.98343873,"ECCENTRICITY":0.0002863,"INCLINATION":70.0015,"RA_OF_ASC_NODE":233.9223,"ARG_OF_PERICENTER":269.4405,"MEAN_ANOMALY":90.6427,"EPHEMERIS_TYPE":0,"CLASSIFICATION_TYPE":"U","NORAD_CAT_ID":63870,"ELEMENT_SET_NO":999,"REV_AT_EPOCH":4723,"BSTAR":0.00030604895,"MEAN_MOTION_DOT":3.562e-5,"MEAN_MOTION_DDOT":0},{"OBJECT_NAME":"SKYKRAFT-4E","OBJECT_ID":"2025-154L","EPOCH":"2026-03-09T17:52:42.156768","MEAN_MOTION":14.96573469,"ECCENTRICITY":0.00042366,"INCLINATION":97.6795,"RA_OF_ASC_NODE":135.3397,"ARG_OF_PERICENTER":218.3459,"MEAN_ANOMALY":141.7462,"EPHEMERIS_TYPE":0,"CLASSIFICATION_TYPE":"U","NORAD_CAT_ID":65227,"ELEMENT_SET_NO":999,"REV_AT_EPOCH":3245,"BSTAR":0.00070463663,"MEAN_MOTION_DOT":7.969e-5,"MEAN_MOTION_DDOT":0}]
